OBJECT_NAME,OBJECT_ID,EPOCH,MEAN_MOTION,ECCENTRICITY,INCLINATION,RA_OF_ASC_NODE,ARG_OF_PERICENTER,MEAN_ANOMALY,EPHEMERIS_TYPE,CLASSIFICATION_TYPE,NORAD_CAT_ID,ELEMENT_SET_NO,REV_AT_EPOCH,BSTAR,MEAN_MOTION_DOT,MEAN_MOTION_DDOT
ONEWEB-0012,2019-010A,2026-07-16T03:10:05.306304,13.16593889,.0001645,87.9077,223.0353,94.6878,265.4441,0,U,44057,999,35537,.58461E-4,.35E-6,0
ONEWEB-0010,2019-010B,2026-07-16T01:57:09.455616,13.16593815,.0002299,87.9080,223.0413,99.8199,260.3192,0,U,44058,999,35541,.14108E-3,.67E-6,0
ONEWEB-0008,2019-010C,2026-07-16T02:33:37.842336,13.16593412,.0002161,87.9078,223.0316,86.0846,274.0532,0,U,44059,999,35553,-.3102E-3,-.106E-5,0
ONEWEB-0007,2019-010D,2026-07-16T02:07:45.353568,13.15548224,.0001966,87.8984,253.4624,105.7610,254.3737,0,U,44060,999,35517,.90501E-4,.47E-6,0
ONEWEB-0006,2019-010E,2026-07-16T02:13:26.027040,13.15550988,.0002254,87.8995,253.4287,96.9028,263.2359,0,U,44061,999,35522,-.83901E-4,-.19E-6,0
ONEWEB-0011,2019-010F,2026-07-16T03:17:19.555296,13.15549694,.0002279,87.8996,253.4299,97.4758,262.6632,0,U,44062,999,35522,.49567E-3,.199E-5,0
ONEWEB-0013,2020-008A,2026-07-16T03:06:49.103136,13.09454956,.0000928,87.8487,46.9816,64.7912,295.3311,0,U,45131,999,30985,.36369E-3,.138E-5,0
ONEWEB-0017,2020-008B,2026-07-16T02:12:25.807968,13.10372206,.0002025,87.8810,30.5075,92.9808,267.1551,0,U,45132,999,31173,-.10883E-2,-.367E-5,0
ONEWEB-0020,2020-008C,2026-07-16T01:28:27.418080,13.10373759,.000183,87.8822,30.5131,86.7937,273.3400,0,U,45133,999,31212,.19038E-2,.677E-5,0
ONEWEB-0021,2020-008D,2026-07-16T01:50:26.039328,13.10369333,.0001766,87.8812,30.5246,91.2561,268.8768,0,U,45134,999,31243,.11251E-2,.405E-5,0
ONEWEB-0023,2020-008F,2026-07-16T02:06:18.480960,13.10368583,.0001807,87.8816,30.5063,83.3059,276.8273,0,U,45136,999,31186,-.35258E-3,-.11E-5,0
ONEWEB-0024,2020-008G,2026-07-16T01:26:12.012864,13.10373470,.000186,87.8828,30.5055,90.0224,270.1117,0,U,45137,999,31202,.16262E-2,.58E-5,0
ONEWEB-0025,2020-008H,2026-07-16T01:25:48.378144,13.10374161,.0002222,87.8829,30.4956,80.1437,279.9941,0,U,45138,999,31235,.15326E-2,.548E-5,0
ONEWEB-0026,2020-008J,2026-07-15T23:58:11.331264,13.11418773,.0001993,87.8884,15.3302,91.3659,268.7697,0,U,45139,999,31488,-.67193E-3,-.225E-5,0
ONEWEB-0028,2020-008K,2026-07-16T01:12:39.472704,13.11414726,.0001283,87.8877,15.3270,86.3181,273.8094,0,U,45140,999,31240,-.87116E-3,-.296E-5,0
ONEWEB-0032,2020-008L,2026-07-16T02:15:04.237056,13.10370682,.0001449,87.8814,30.5092,78.4467,281.6823,0,U,45141,999,31208,-.13383E-2,-.454E-5,0
ONEWEB-0033,2020-008M,2026-07-16T01:38:13.693056,13.10371710,.0002276,87.8811,30.5202,95.8629,264.2757,0,U,45142,999,31199,.18818E-2,.67E-5,0
ONEWEB-0035,2020-008N,2026-07-16T02:07:43.979808,13.10373717,.0001829,87.8809,30.5095,91.0529,269.0808,0,U,45143,999,31172,-.48483E-3,-.157E-5,0
ONEWEB-0036,2020-008P,2026-07-16T01:35:37.531104,13.10373721,.0001738,87.8830,30.5314,82.1434,277.9890,0,U,45144,999,31214,.1731E-2,.617E-5,0
ONEWEB-0038,2020-008Q,2026-07-16T00:13:02.817696,13.11418965,.0002047,87.8901,15.3410,141.7676,218.3598,0,U,45145,999,31410,.54347E-3,.205E-5,0
ONEWEB-0039,2020-008R,2026-07-16T01:43:07.072032,13.10370917,.0001324,87.8816,30.5106,82.6340,277.4937,0,U,45146,999,31194,.17396E-2,.62E-5,0
ONEWEB-0040,2020-008S,2026-07-16T01:33:19.952928,13.10372431,.0001853,87.8815,30.5222,76.7791,283.3543,0,U,45147,999,31164,.19199E-2,.683E-5,0
ONEWEB-0043,2020-008U,2026-07-16T01:35:58.806240,13.10374992,.0001344,87.8821,30.5114,80.2590,279.8689,0,U,45149,999,31196,.18124E-2,.645E-5,0
ONEWEB-0044,2020-008V,2026-07-16T02:17:18.766176,13.10372819,.0001734,87.8822,30.5076,85.5785,274.5541,0,U,45150,999,31226,-.15792E-2,-.539E-5,0
ONEWEB-0045,2020-008W,2026-07-16T00:05:31.066656,13.11418754,.0001715,87.8893,15.3231,91.2101,268.9223,0,U,45151,999,31418,-.59174E-4,-.8E-7,0
ONEWEB-0047,2020-008X,2026-07-16T02:07:19.767072,13.10369232,.000189,87.8820,30.5080,94.2175,265.9168,0,U,45152,999,31198,-.30777E-3,-.95E-6,0
ONEWEB-0048,2020-008Y,2026-07-16T02:00:13.319136,13.10370734,.0001724,87.8811,30.5275,92.9100,267.2225,0,U,45153,999,31159,.44144E-3,.167E-5,0
ONEWEB-0049,2020-008Z,2026-07-16T00:14:55.402944,13.10369223,.0001891,87.8809,30.5313,76.5950,283.5388,0,U,45154,999,31180,-.16965E-3,-.47E-6,0
ONEWEB-0051,2020-008AA,2026-07-16T00:03:04.542624,13.11419423,.0001836,87.8887,15.3292,89.8520,270.2819,0,U,45155,999,31486,-.32848E-3,-.104E-5,0
ONEWEB-0052,2020-008AB,2026-07-16T00:44:39.532704,13.10375662,.0001744,87.8822,30.5151,76.5216,283.6105,0,U,45156,999,31171,-.17517E-2,-.599E-5,0
ONEWEB-0053,2020-008AC,2026-07-16T01:30:53.670816,13.10372691,.0001464,87.8814,30.5281,77.6330,282.4961,0,U,45157,999,31169,.20805E-2,.739E-5,0
